[{"OBJECT_NAME":"STARLINK-5065","OBJECT_ID":"2023-021P","EPOCH":"2026-03-09T17:27:18.602496","MEAN_MOTION":14.98329574,"ECCENTRICITY":0.00031499,"INCLINATION":70.0008,"RA_OF_ASC_NODE":184.494,"ARG_OF_PERICENTER":268.0552,"MEAN_ANOMALY":92.0246,"EPHEMERIS_TYPE":0,"CLASSIFICATION_TYPE":"U","NORAD_CAT_ID":55641,"ELEMENT_SET_NO":999,"REV_AT_EPOCH":16879,"BSTAR":9.789213e-6,"MEAN_MOTION_DOT":2.4e-7,"MEAN_MOTION_DDOT":0},{"OBJECT_NAME":"USA 40 R\/B DEB","OBJECT_ID":"1989-061AV","EPOCH":"2026-03-06T06:22:19.156800","MEAN_MOTION":8.7421964,"ECCENTRICITY":0.30163703,"INCLINATION":57.0031,"RA_OF_ASC_NODE":25.4277,"ARG_OF_PERICENTER":157.2147,"MEAN_ANOMALY":219.7221,"EPHEMERIS_TYPE":0,"CLASSIFICATION_TYPE":"U","NORAD_CAT_ID":23373,"ELEMENT_SET_NO":999,"REV_AT_EPOCH":22246,"BSTAR":0.0023772731,"MEAN_MOTION_DOT":1.938e-5,"MEAN_MOTION_DDOT":0}]
